217P/LINEAR,e,12.8645,125.4785,246.8443,3.951605,0.1254711,0.68833575,140.2872,08/08.0/2020,2000,g 12.0,4.0
# From MPEC 2020-N31
218P/LINEAR,e,2.7255,175.9757,59.7854,3.093816,0.1811183,0.62185627,349.7166,08/08.0/2020,2000,g 16.0,4.0
# From MPC100284
219P/LINEAR,e,11.5295,230.9940,107.3663,3.650766,0.1412954,0.35361836,178.5180,08/08.0/2020,2000,g 11.0,4.0
# From MPEC 2020-N31
220P/McNaught,e,8.1280,150.1061,180.5432,3.116328,0.1791593,0.50189582,337.6675,08/08.0/2020,2000,g 15.0,4.0
# From MPC 93589
221P/LINEAR,e,11.4260,229.7192,40.0530,3.457541,0.1533039,0.49282823,283.8148,08/08.0/2020,2000,g 14.5,4.0
# From MPC 92277
222P/LINEAR,e,5.0952,6.7934,346.2302,2.899375,0.1996399,0.71443807,85.8231,08/08.0/2020,2000,g 20.0,4.0
# From MPEC 2020-HN5
223P/Skiff,e,27.0179,346.7739,37.8194,4.159147,0.1161977,0.41571745,64.9198,08/08.0/2020,2000,g 12.0,4.0
# From MPC 75727
224P/LINEAR-NEAT,e,13.3189,40.3332,16.7844,3.438203,0.1545990,0.40829260,238.9701,08/08.0/2020,2000,g 15.5,4.0
# From MPC 75727
225P/LINEAR,e,21.3510,14.1846,3.8662,3.650935,0.1412856,0.63768873,205.2070,08/08.0/2020,2000,g 18.0,4.0
# From MPC106349
226P/Pigott-LINEAR-Kowalski,e,44.0094,54.0042,341.0492,3.767827,0.1347620,0.52822570,193.2841,08/08.0/2020,2000,g 12.5,4.0
# From MPC102956
227P/Catalina-LINEAR,e,6.5079,49.3514,90.1811,3.568857,0.1461875,0.50626524,166.7727,08/08.0/2020,2000,g 16.5,2.0
# From MPEC 2020-L06
228P/LINEAR,e,7.9102,30.9834,115.2767,4.173161,0.1156129,0.17669553,17.3991,08/08.0/2020,2000,g 14.5,2.0
# From MPC106349
229P/Gibbs,e,26.0869,157.9006,223.9750,3.931181,0.1264502,0.37659300,148.6112,08/08.0/2020,2000,g 13.0,4.0
# From MPC110497
230P/LINEAR,e,15.5142,107.0219,313.6164,3.449510,0.1538395,0.54823992,269.6406,08/08.0/2020,2000,g 13.0,4.0
# From MPEC 2020-N31
231P/LINEAR-NEAT,e,12.3346,133.0219,42.9178,4.019218,0.1223184,0.24766818,51.3763,08/08.0/2020,2000,g 14.5,2.0
# From MPC112394
232P/Hill,e,14.6314,56.0199,53.4743,4.482021,0.1038707,0.33425113,50.8787,08/08.0/2020,2000,g 11.5,4.0
# From MPC 92986
233P/La Sagra,e,11.2839,74.9273,27.0602,3.030686,0.1868068,0.41179605,349.7861,08/08.0/2020,2000,g 15.0,4.0
# From MPC110497
234P/LINEAR,e,11.5252,179.5668,357.3637,3.802690,0.1329131,0.25414876,155.0717,08/08.0/2020,2000,g 12.0,4.0
# From MPC110497
235P/LINEAR,e,8.8907,203.8342,333.4873,3.980947,0.1240865,0.31994004,108.6264,08/08.0/2020,2000,g 12.0,4.0
# From MPC107688
236P/LINEAR,e,16.3341,245.6505,119.2000,3.731088,0.1367574,0.50852018,135.5942,08/08.0/2020,2000,g 14.0,4.0
# From MPC109593
237P/LINEAR,e,14.0202,245.4131,25.1810,3.512420,0.1497250,0.43470915,208.9137,08/08.0/2020,2000,g 14.5,2.0
# From MPC107688
238P/Read,e,1.2645,51.6430,324.6824,3.163553,0.1751626,0.25232683,243.0003,08/08.0/2020,2000,g 14.5,4.0
# From MPC112394
239P/LINEAR,e,11.3016,255.9142,220.4426,4.471370,0.1042421,0.63055390,60.0416,08/08.0/2020,2000,g 17.5,2.0
# From MPC109593
240P/NEAT,e,23.5056,74.9217,351.9975,3.868066,0.1295577,0.44872328,105.6481,08/08.0/2020,2000,g 11.0,4.0
# From MPC 75729
241P/LINEAR,e,21.1051,305.4827,111.3164,4.926917,0.0901241,0.61050133,328.3171,08/08.0/2020,2000,g 13.5,4.0
# From MPC 81861
242P/Spahr,e,32.4818,180.4721,246.2089,5.478089,0.0768706,0.27793259,236.1935,08/08.0/2020,2000,g  8.0,4.0
# From MPC111774
243P/NEAT,e,7.6412,87.6544,283.5208,3.831498,0.1314169,0.35981054,93.6858,08/08.0/2020,2000,g 12.5,4.0
# From MPC 88331
244P/Scotti,e,2.2592,353.9901,92.8712,4.895468,0.0909940,0.19840974,284.4748,08/08.0/2020,2000,g  9.0,4.0
# From MPC111774
245P/WISE,e,21.1972,316.6499,316.8251,4.042756,0.1212517,0.45759109,110.4811,08/08.0/2020,2000,g 14.0,4.0
# From MPEC 2020-N31
246P/NEAT,e,15.9873,78.7475,176.2748,4.015523,0.1224873,0.28676157,335.6602,08/08.0/2020,2000,g 10.5,4.0
# From MPC112394
247P/LINEAR,e,13.6555,54.0116,47.4869,3.970283,0.1245868,0.62447242,76.6349,08/08.0/2020,2000,g 16.5,2.0
# From MPC 75730
248P/Gibbs,e,6.3469,207.7510,209.9070,5.990883,0.0672153,0.63790417,234.5372,08/08.0/2020,2000,g 14.0,4.0
# From MPEC 2020-N31
249P/LINEAR,e,8.3969,239.1763,65.6057,2.761958,0.2147229,0.82014393,8.4821,08/08.0/2020,2000,g 15.5,4.0
# From MPC110497
250P/Larson,e,13.2303,73.6469,45.9436,3.754023,0.1355061,0.40383144,124.4012,08/08.0/2020,2000,g 14.5,4.0
# From MPC104795
251P/LINEAR,e,23.4042,219.3991,31.2647,3.509905,0.1498860,0.50547765,167.6404,08/08.0/2020,2000,g 16.5,2.0
# From MPC102956
252P/LINEAR,e,10.4103,190.9523,343.3135,3.049542,0.1850768,0.67200045,297.6390,08/08.0/2020,2000,g 17.5,4.0
# From MPC112394
253P/PANSTARRS,e,4.9426,146.8769,230.6420,3.467819,0.1526228,0.41345582,125.6336,08/08.0/2020,2000,g 14.5,4.0
# From MPC 81473
254P/McNaught,e,32.5717,129.1735,219.4732,4.614947,0.0994155,0.32025561,354.7689,08/08.0/2020,2000,g 11.0,4.0
# From NK 2214
255P/Levy,e,14.2019,276.9153,185.0448,2.931389,0.1963785,0.72138934,211.9425,08/08.0/2020,2000,g  9.0,4.0
# From MPC 84027
256P/LINEAR,e,27.6353,81.3508,124.3044,4.636282,0.0987301,0.41836539,266.5705,08/08.0/2020,2000,g 14.0,2.0
# From MPEC 2020-N31
257P/Catalina,e,20.2212,207.7423,117.6459,3.764061,0.1349644,0.43081204,355.4458,08/08.0/2020,2000,g 11.5,4.0
# From MPC 79655
258P/PANSTARRS,e,6.7460,126.2482,26.1041,4.401474,0.1067350,0.20900820,5.2796,08/08.0/2020,2000,g 13.0,4.0
# From MPC106349
259P/Garradd,e,15.8882,51.4604,257.5782,2.730881,0.2183986,0.33846933,240.0252,08/08.0/2020,2000,g 15.5,4.0
# From MPEC 2020-L06
260P/McNaught,e,15.0532,349.3456,18.4010,3.622312,0.1429635,0.60893402,47.6087,08/08.0/2020,2000,g 13.5,4.0
# From MPEC 2019-TG9
261P/Larson,e,6.0761,291.1620,67.1302,3.489583,0.1511972,0.42304703,62.9352,08/08.0/2020,2000,g 14.0,4.0
# From MPC 82322
262P/McNaught-Russell,e,29.1731,217.9042,170.9997,6.876405,0.0546590,0.81513386,153.4828,08/08.0/2020,2000,g 13.5,4.0
# From MPC 89018
263P/Gibbs,e,11.5496,105.8143,34.4253,3.054470,0.1846292,0.58994746,192.4268,08/08.0/2020,2000,g  9.0,4.0
# From MPC114608
264P/Larsen,e,25.1331,220.8456,346.7039,3.898421,0.1280474,0.37457065,47.2375,08/08.0/2020,2000,g 13.0,4.0
# From MPC 79870
265P/LINEAR,e,14.3623,342.9357,33.4125,4.254498,0.1123134,0.64769778,339.2196,08/08.0/2020,2000,g 14.5,4.0
# From MPEC 2019-TG9
266P/Christensen,e,3.4259,5.0000,97.8456,3.535318,0.1482728,0.33946811,16.3844,08/08.0/2020,2000,g 12.5,4.0
# From MPC114608
267P/LONEOS,e,6.1376,228.6596,114.0946,3.212121,0.1712049,0.61404947,127.9630,08/08.0/2020,2000,g 19.5,4.0
# From MPC 92277
268P/Bernardi,e,16.1417,127.5848,0.0604,4.550426,0.1015374,0.47143519,196.1048,08/08.0/2020,2000,g 14.0,4.0
# From MPC104795
269P/Jedicke,e,7.0703,241.7029,225.9655,7.080615,0.0523115,0.43045146,111.8514,08/08.0/2020,2000,g 10.0,4.0
# From MPC 88332
270P/Gehrels,e,2.9177,222.9639,209.9063,6.669007,0.0572285,0.46693244,149.8839,08/08.0/2020,2000,g  8.0,4.0
# From MPC 92277
271P/van Houten-Lemmon,e,6.8664,9.2981,36.4594,7.048044,0.0526746,0.39340458,136.2159,08/08.0/2020,2000,g 11.0,4.0
# From MPC 81862
272P/NEAT,e,18.0762,109.4642,27.9850,4.454495,0.1048350,0.45415115,285.7333,08/08.0/2020,2000,g 16.0,2.0
# From MPC 82723
273P/Pons-Gambart,e,136.7687,320.4005,20.3060,31.72668,0.0055153,0.97404655,0.0000,12/17.1525/2012,2000,g 11.5,4.0
# From MPC 88332
274P/Tombaugh-Tenagra,e,15.8177,81.3366,38.5107,4.371067,0.1078507,0.43875201,294.3498,08/08.0/2020,2000,g 13.0,4.0
# From MPC 81862
275P/Hermann,e,21.2812,348.7573,174.1013,5.771481,0.0710842,0.71250988,197.9921,08/08.0/2020,2000,g 17.0,4.0
# From MPC114609
276P/Vorobjov,e,14.8185,211.4428,199.9186,5.312506,0.0804924,0.26728260,231.7996,08/08.0/2020,2000,g 11.5,4.0
# From MPC105243
277P/LINEAR,e,16.7790,276.3443,152.3211,3.851599,0.1303895,0.50552083,341.1965,08/08.0/2020,2000,g 14.0,4.0
# From MPEC 2020-L06
278P/McNaught,e,6.6852,15.4493,238.0840,3.693257,0.1388640,0.43490933,355.1314,08/08.0/2020,2000,g 14.0,4.0
# From MPC100285
279P/La Sagra,e,5.0517,346.2273,5.7589,3.575446,0.1457836,0.39810931,216.4335,08/08.0/2020,2000,g 14.0,4.0
# From MPC 89013
280P/Larsen,e,11.7749,131.3943,104.8056,4.528890,0.1022625,0.41799127,248.4072,08/08.0/2020,2000,g 12.5,4.0
# From MPC 83145
281P/MOSS,e,4.7197,87.1720,26.8618,4.869625,0.0917193,0.17156563,276.5892,08/08.0/2020,2000,g 11.0,4.0
# From MPC xxxxx
282P/,e,5.8102,9.2971,217.5432,4.244442,0.1127128,0.18924147,310.1740,08/08.0/2020,2000,g 13.5,2.0
# From MPEC 2013-M31
283P/Spacewatch,e,14.4538,161.1350,22.2720,4.139321,0.1170336,0.48501604,313.6483,08/08.0/2020,2000,g  9.0,4.0
# From MPEC 2020-N31
284P/McNaught,e,11.8585,144.2768,202.6358,3.675816,0.1398535,0.37591986,303.8774,08/08.0/2020,2000,g 13.0,4.0
# From MPC 85339
285P/LINEAR,e,25.0297,185.4892,178.4053,4.508899,0.1029433,0.61810000,268.6198,08/08.0/2020,2000,g 15.0,4.0
# From MPC 90771
286P/Christensen,e,17.0449,283.9650,24.7703,4.110837,0.1182521,0.42527073,284.0227,08/08.0/2020,2000,g 14.0,4.0
# From MPC 96868
287P/Christensen,e,16.3192,139.0419,188.8446,4.167467,0.1158499,0.27063074,237.1885,08/08.0/2020,2000,g 13.5,4.0
# From MPC xxxxx
288P/,e,3.2403,83.1880,280.7354,3.047475,0.1852652,0.20138477,253.8983,08/08.0/2020,2000,g 16.0,2.0
# From MPC118844
289P/Blanpain,e,5.8940,68.8887,9.8830,3.047849,0.1852311,0.68540644,42.7903,08/08.0/2020,2000,g  2.5,4.0
# From MPC 95214
290P/Jager,e,20.1907,302.7017,181.8402,6.166011,0.0643721,0.64062865,151.1813,08/08.0/2020,2000,g 10.5,4.0
# From MPC 89314
291P/NEAT,e,6.3258,238.1973,173.9899,4.511768,0.1028452,0.43634952,256.9944,08/08.0/2020,2000,g 13.0,4.0
# From MPC115887
292P/Li,e,24.2533,90.9990,319.4626,6.109853,0.0652616,0.58770590,155.4671,08/08.0/2020,2000,g 12.5,4.0
# From MPC 92278
293P/Spacewatch,e,9.0569,78.4121,41.0736,3.643731,0.1417048,0.41823488,341.1081,08/08.0/2020,2000,g 14.5,4.0
# From MPEC 2020-N31
294P/LINEAR,e,18.2192,312.5909,235.5516,3.206873,0.1716253,0.59451390,43.2869,08/08.0/2020,2000,g 15.5,4.0
# From MPC 93589
295P/LINEAR,e,21.0731,7.4169,72.9495,5.306566,0.0806276,0.61598972,184.3072,08/08.0/2020,2000,g 12.0,4.0
# From MPEC 2020-N31
